SL-16 R/B               
1 23405U 94077B   26185.78664515 -.00000149  00000+0 -51825-4 0  9995
2 23405  70.9833 106.1375 0003933 311.7312  48.3474 14.15577809632801
ARIANE 40+ R/B          
1 23561U 95021B   26185.65524108  .00000407  00000+0  14348-3 0  9990
2 23561  98.4405 255.4774 0007514 143.7496  17.3725 14.39843965636073
SL-16 R/B               
1 23705U 95058B   26185.72859278 -.00000231  00000+0 -93782-4 0  9994
2 23705  71.0225 294.5297 0014636 296.5076  63.4546 14.15509910584414
SL-16 R/B               
1 24298U 96051B   26185.73622711  .00000177  00000+0  12220-3 0  9991
2 24298  70.7654 287.5097 0016947 311.9666  48.0009 14.12452508538170
ORBVIEW 2 (SEASTAR)     
1 24883U 97037A   26184.88713695  .00000376  00000+0  14665-3 0  9999
2 24883  98.8703 352.3701 0003316  83.2113 276.9449 14.35562984525149
SL-16 R/B               
1 25400U 98043G   26185.62286797  .00000078  00000+0  51648-4 0  9996
2 25400  98.8372 139.9328 0010561  40.6310 319.5655 14.26071626455656
SL-16 R/B               
1 25407U 98045B   26185.25832512  .00000091  00000+0  70006-4 0  9990
2 25407  71.0127 296.4278 0008694 220.5658 139.4818 14.16207563443607
ISS (ZARYA)             
1 25544U 98067A   26185.79857271  .00009725  00000+0  18504-3 0  9991
2 25544  51.6303 212.9192 0006761 256.1012 103.9224 15.48894567574489
CZ-4B R/B               
1 25732U 99025C   26185.86733498  .00000062  00000+0  50442-4 0  9990
2 25732  98.6474 227.2602 0037220   9.5636 163.0817 14.18286602404779
OKEAN-O                 
1 25860U 99039A   26185.92014688  .00000819  00000+0  11386-3 0  9990
2 25860  97.9306 244.5137 0001106  72.8435 287.2898 14.80489729451736
SL-16 R/B               
1 25861U 99039B   26185.92545530  .00000693  00000+0  94305-4 0  9999
2 25861  97.9827 244.7373 0013625 233.6424 126.3532 14.81864101454220
DELTA 2 R/B             
1 25876U 99041E   26185.72921617  .00001703  00000+0  31156-3 0  9997
2 25876  51.7610 193.7159 0501148 333.8542  23.7846 14.12056632379562
HELIOS 1B               
1 25977U 99064A   26185.19136691  .00001648  00000+0  18568-3 0  9995
2 25977  98.1597  90.8223 0002366  68.2201 291.9266 14.88053365702581
TERRA                   
1 25994U 99068A   26185.63628185  .00000621  00000+0  13521-3 0  9995
2 25994  97.9446 234.4899 0002873 143.9918  16.3015 14.61118561412157
SL-16 R/B               
1 26070U 00006B   26185.79848994 -.00000078  00000+0 -15166-4 0  9990
2 26070  71.0009 211.5946 0016695 355.0517   5.0438 14.15841173365138
TITAN 4B R/B            
1 26474U 00047B   26185.94186278  .00004184  00000+0  25676-3 0  9996
2 26474  67.9889  70.5949 0045922 269.0182  90.5706 15.10298368410618
ENVISAT                 
1 27386U 02009A   26185.83459399  .00000155  00000+0  63908-4 0  9999
2 27386  98.3842 136.7601 0001385  85.3308 306.8944 14.39069326276024
IDEFIX & ARIANE 42P R/B 
1 27422U 02021B   26185.81857291  .00000327  00000+0  14057-3 0  9996
2 27422  98.5942 123.1108 0011238 197.4328 162.6471 14.31090864260776
AQUA                    
1 27424U 02022A   26185.90787659  .00001061  00000+0  22067-3 0  9995
2 27424  98.4287 155.5458 0000684  88.8721 295.4034 14.62186964285867
CZ-4B R/B               
1 27432U 02024C   26185.94679220  .00000061  00000+0  54213-4 0  9992
2 27432  98.8689 238.6508 0050942  50.7689 129.0570 14.14567173245818
MIDORI II (ADEOS-II)    
1 27597U 02056A   26185.63840687  .00000378  00000+0  16613-3 0  9994
2 27597  98.7887 145.0473 0001876  54.0493 306.0862 14.29359678227000
H-2A R/B                
1 27601U 02056E   26185.61907970  .00000341  00000+0  13386-3 0  9991
2 27601  98.3321 141.6590 0070195 172.2528   1.0782 14.33830472230861
CZ-4B R/B               
1 28059U 03049C   26185.76596639  .00000434  00000+0  11093-3 0  9990
2 28059  98.6902 185.3127 0047109 233.6050 126.0796 14.55112062203628
CZ-2C R/B               
1 28222U 04012C   26185.18962842  .00160304  00000+0  75274-3 0  9996
2 28222  97.7059 262.8747 0010896 224.2078 135.8321 15.82652238222584
SL-16 R/B               
1 28353U 04021B   26185.91001211  .00000313  00000+0  18749-3 0  9993
2 28353  71.0018 346.4932 0006581 233.8193 126.2321 14.14612187139410
CZ-4B R/B               
1 28415U 04035C   26185.84782905  .00012754  00000+0  42430-3 0  9991
2 28415  97.3357 218.7244 0028805 271.6247  88.1695 15.30885633197822
CZ-2C R/B               
1 28480U 04046B   26185.51043802  .00000167  00000+0  76779-4 0  9994
2 28480  98.1930  93.2075 0139512 168.8775 191.5546 14.27030997125161
ARIANE 5 R/B            
1 28499U 04049H   26185.91313132  .00000807  00000+0  95180-4 0  9995
2 28499  98.2735 358.8522 0083205 331.9680  27.7065 14.85471367163192
CZ-2D R/B               
1 28738U 05024B   26185.04077653  .00077114  00000+0  60014-3 0  9996
2 28738  97.3477 205.3319 0000490 265.6396  94.4811 15.71509001157986
ALOS (DAICHI)           
1 28931U 06002A   26185.85546717  .00001571  00000+0  26968-3 0  9993
2 28931  98.1330 141.3686 0000840  70.0531 290.0765 14.70089410 90693
