OBJECT_NAME,OBJECT_ID,EPOCH,MEAN_MOTION,ECCENTRICITY,INCLINATION,RA_OF_ASC_NODE,ARG_OF_PERICENTER,MEAN_ANOMALY,EPHEMERIS_TYPE,CLASSIFICATION_TYPE,NORAD_CAT_ID,ELEMENT_SET_NO,REV_AT_EPOCH,BSTAR,MEAN_MOTION_DOT,MEAN_MOTION_DDOT
SL-16 R/B,1994-077B,2026-07-04T18:52:46.140960,14.15577809,.0003933,70.9833,106.1375,311.7312,48.3474,0,U,23405,999,63280,-.51824896E-4,-.149E-5,0
ARIANE 40+ R/B,1995-021B,2026-07-04T15:43:32.829312,14.39843965,.00075149,98.4405,255.4774,143.7496,17.3725,0,U,23561,999,63607,.14347783E-3,.407E-5,0
SL-16 R/B,1995-058B,2026-07-04T17:29:10.416192,14.15509910,.00146363,71.0225,294.5297,296.5076,63.4546,0,U,23705,999,58441,-.93782467E-4,-.231E-5,0
SL-16 R/B,1996-051B,2026-07-04T17:40:10.022304,14.12452508,.00169479,70.7654,287.5097,311.9666,48.0009,0,U,24298,999,53817,.12219925E-3,.177E-5,0
ORBVIEW 2 (SEASTAR),1997-037A,2026-07-03T21:17:28.632480,14.35562984,.0003316,98.8703,352.3701,83.2113,276.9449,0,U,24883,999,52514,.14665085E-3,.376E-5,0
SL-16 R/B,1998-043G,2026-07-04T14:56:55.792608,14.26071626,.00105615,98.8372,139.9328,40.6310,319.5655,0,U,25400,999,45565,.51648142E-4,.78E-6,0
SL-16 R/B,1998-045B,2026-07-04T06:11:59.290368,14.16207563,.00086944,71.0127,296.4278,220.5658,139.4818,0,U,25407,999,44360,.70006074E-4,.91E-6,0
ISS (ZARYA),1998-067A,2026-07-04T19:09:56.682144,15.48894567,.00067612,51.6303,212.9192,256.1012,103.9224,0,U,25544,999,57448,.18504104E-3,.9725E-4,0
CZ-4B R/B,1999-025C,2026-07-04T20:48:57.742272,14.18286602,.00372205,98.6474,227.2602,9.5636,163.0817,0,U,25732,999,40477,.50441773E-4,.62E-6,0
OKEAN-O,1999-039A,2026-07-04T22:05:00.690432,14.80489729,.00011061,97.9306,244.5137,72.8435,287.2898,0,U,25860,999,45173,.11386477E-3,.819E-5,0
SL-16 R/B,1999-039B,2026-07-04T22:12:39.337920,14.81864101,.0013625,97.9827,244.7373,233.6424,126.3532,0,U,25861,999,45422,.94304617E-4,.693E-5,0
DELTA 2 R/B,1999-041E,2026-07-04T17:30:04.277088,14.12056632,.05011481,51.7610,193.7159,333.8542,23.7846,0,U,25876,999,37956,.31156236E-3,.1703E-4,0
HELIOS 1B,1999-064A,2026-07-04T04:35:34.101024,14.88053365,.00023663,98.1597,90.8223,68.2201,291.9266,0,U,25977,999,70258,.18568114E-3,.1648E-4,0
TERRA,1999-068A,2026-07-04T15:16:14.751840,14.61118561,.00028735,97.9446,234.4899,143.9918,16.3015,0,U,25994,999,41215,.13521029E-3,.621E-5,0
SL-16 R/B,2000-006B,2026-07-04T19:09:49.530816,14.15841173,.0016695,71.0009,211.5946,355.0517,5.0438,0,U,26070,999,36513,-.15165614E-4,-.78E-6,0
TITAN 4B R/B,2000-047B,2026-07-04T22:36:16.944192,15.10298368,.00459229,67.9889,70.5949,269.0182,90.5706,0,U,26474,999,41061,.25675697E-3,.4184E-4,0
ENVISAT,2002-009A,2026-07-04T20:01:48.920736,14.39069326,.00013853,98.3842,136.7601,85.3308,306.8944,0,U,27386,999,27602,.63908149E-4,.155E-5,0
IDEFIX & ARIANE 42P R/B,2002-021B,2026-07-04T19:38:44.699424,14.31090864,.00112387,98.5942,123.1108,197.4328,162.6471,0,U,27422,999,26077,.1405739E-3,.327E-5,0
AQUA,2002-022A,2026-07-04T21:47:20.537376,14.62186964,.0000684,98.4287,155.5458,88.8721,295.4034,0,U,27424,999,28586,.22067452E-3,.1061E-4,0
CZ-4B R/B,2002-024C,2026-07-04T22:43:22.846080,14.14567173,.00509423,98.8689,238.6508,50.7689,129.0570,0,U,27432,999,24581,.54213343E-4,.61E-6,0
MIDORI II (ADEOS-II),2002-056A,2026-07-04T15:19:18.353568,14.29359678,.00018763,98.7887,145.0473,54.0493,306.0862,0,U,27597,999,22700,.16613183E-3,.378E-5,0
H-2A R/B,2002-056E,2026-07-04T14:51:28.486080,14.33830472,.00701952,98.3321,141.6590,172.2528,1.0782,0,U,27601,999,23086,.13385784E-3,.341E-5,0
CZ-4B R/B,2003-049C,2026-07-04T18:22:59.496096,14.55112062,.00471094,98.6902,185.3127,233.6050,126.0796,0,U,28059,999,20362,.11092817E-3,.434E-5,0
CZ-2C R/B,2004-012C,2026-07-04T04:33:03.895488,15.82652238,.0010896,97.7059,262.8747,224.2078,135.8321,0,U,28222,999,22258,.75273855E-3,.160304E-2,0
SL-16 R/B,2004-021B,2026-07-04T21:50:25.046304,14.14612187,.00065811,71.0018,346.4932,233.8193,126.2321,0,U,28353,999,13941,.18748781E-3,.313E-5,0
CZ-4B R/B,2004-035C,2026-07-04T20:20:52.429920,15.30885633,.00288057,97.3357,218.7244,271.6247,88.1695,0,U,28415,999,19782,.42429763E-3,.12754E-3,0
CZ-2C R/B,2004-046B,2026-07-04T12:15:01.844928,14.27030997,.0139512,98.1930,93.2075,168.8775,191.5546,0,U,28480,999,12516,.7677858E-4,.167E-5,0
ARIANE 5 R/B,2004-049H,2026-07-04T21:54:54.546048,14.85471367,.00832059,98.2735,358.8522,331.9680,27.7065,0,U,28499,999,16319,.95180251E-4,.807E-5,0
CZ-2D R/B,2005-024B,2026-07-04T00:58:43.092192,15.71509001,.00004908,97.3477,205.3319,265.6396,94.4811,0,U,28738,999,15798,.60013893E-3,.77114E-3,0
ALOS (DAICHI),2006-002A,2026-07-04T20:31:52.363488,14.70089410,.00008405,98.1330,141.3686,70.0531,290.0765,0,U,28931,999,9069,.2696774E-3,.1571E-4,0
